[{"OBJECT_NAME":"GEISAT PRECURSOR","OBJECT_ID":"2023-084C","EPOCH":"2026-03-09T22:20:25.833120","MEAN_MOTION":15.33054389,"ECCENTRICITY":0.00051675,"INCLINATION":97.6055,"RA_OF_ASC_NODE":206.8263,"ARG_OF_PERICENTER":345.1842,"MEAN_ANOMALY":14.9247,"EPHEMERIS_TYPE":0,"CLASSIFICATION_TYPE":"U","NORAD_CAT_ID":56934,"ELEMENT_SET_NO":999,"REV_AT_EPOCH":15231,"BSTAR":0.00033857167,"MEAN_MOTION_DOT":0.00010736,"MEAN_MOTION_DDOT":0},{"OBJECT_NAME":"STARLINK-31035","OBJECT_ID":"2023-192B","EPOCH":"2026-03-09T23:20:57.031584","MEAN_MOTION":15.30222302,"ECCENTRICITY":7.916e-5,"INCLINATION":53.1615,"RA_OF_ASC_NODE":48.2681,"ARG_OF_PERICENTER":112.6293,"MEAN_ANOMALY":247.4792,"EPHEMERIS_TYPE":0,"CLASSIFICATION_TYPE":"U","NORAD_CAT_ID":58532,"ELEMENT_SET_NO":999,"REV_AT_EPOCH":12621,"BSTAR":0.00015725891,"MEAN_MOTION_DOT":4.304e-5,"MEAN_MOTION_DDOT":0}]
